start=new Date('2022-12-23T00:00:00.000Z').valueOf();
sats=[{"APOAPSIS":"541.138","ARG_OF_PERICENTER":"41.8045","COUNTRY_CODE":"US","ECCENTRICITY":"0.00020200","LAUNCH_DATE":"2022-07-24","REV_AT_EPOCH":"2410","SEMIMAJOR_AXIS":"6917.875","FILE":"3719655","NORAD_CAT_ID":"53285","MEAN_MOTION_DOT":"-0.00001129","RA_OF_ASC_NODE":"49.9565","CENTER_NAME":"EARTH","PERIAPSIS":"538.343","RCS_SIZE":"LARGE","EPHEMERIS_TYPE":"0","MEAN_MOTION_DDOT":"0.0000000000000","TLE_LINE1":"1 53285U 22086AV  22356.67982509 -.00001129  00000-0 -52858-4 0  9992","GP_ID":"221238794","MEAN_ELEMENT_THEORY":"SGP4","DECAY_DATE":null,"MEAN_MOTION":"15.08841681","INCLINATION":"53.2199","EPOCH":"2022-12-22T16:18:56.887776","TIME_SYSTEM":"UTC","CLASSIFICATION_TYPE":"U","OBJECT_NAME":"STARLINK-4173","MEAN_ANOMALY":"318.3101","OBJECT_ID":"2022-086AV","ELEMENT_SET_NO":"999","REF_FRAME":"TEME","BSTAR":"-0.00005285800000","OBJECT_TYPE":"PAYLOAD","SITE":"AFETR","TLE_LINE2":"2 53285  53.2199  49.9565 0002020  41.8045 318.3101 15.08841681 24104","PERIOD":"95.437"},{"PERIOD":"95.438","TLE_LINE2":"2 53286  53.2191  51.1126 0002122  39.9427 320.1721 15.08840164 23901","OBJECT_TYPE":"PAYLOAD","SITE":"AFETR","ELEMENT_SET_NO":"999","REF_FRAME":"TEME","OBJECT_ID":"2022-086AW","BSTAR":"-0.00007641000000","EPOCH":"2022-12-22T10:08:00.468960","MEAN_ANOMALY":"320.1721","CLASSIFICATION_TYPE":"U","OBJECT_NAME":"STARLINK-4165","TIME_SYSTEM":"UTC","MEAN_MOTION_DDOT":"0.0000000000000","INCLINATION":"53.2191","DECAY_DATE":null,"GP_ID":"221211120","MEAN_MOTION":"15.08840164","MEAN_ELEMENT_THEORY":"SGP4","TLE_LINE1":"1 53286U 22086AW  22356.42222765 -.00001504  00000-0 -76410-4 0  9994","RCS_SIZE":"LARGE","PERIAPSIS":"538.277","CENTER_NAME":"EARTH","RA_OF_ASC_NODE":"51.1126","EPHEMERIS_TYPE":"0","NORAD_CAT_ID":"53286","MEAN_MOTION_DOT":"-0.00001504","SEMIMAJOR_AXIS":"6917.880","FILE":"3719571","REV_AT_EPOCH":"2390","LAUNCH_DATE":"2022-07-24","ARG_OF_PERICENTER":"39.9427","APOAPSIS":"541.213","ECCENTRICITY":"0.00021220","COUNTRY_CODE":"US"},{"APOAPSIS":"541.214","ARG_OF_PERICENTER":"38.9911","COUNTRY_CODE":"US","ECCENTRICITY":"0.00020900","LAUNCH_DATE":"2022-07-24","REV_AT_EPOCH":"2410","SEMIMAJOR_AXIS":"6917.903","FILE":"3719655","NORAD_CAT_ID":"53287","MEAN_MOTION_DOT":"-0.00002030","RA_OF_ASC_NODE":"49.9866","CENTER_NAME":"EARTH","PERIAPSIS":"538.322","RCS_SIZE":"LARGE","EPHEMERIS_TYPE":"0","MEAN_MOTION_DDOT":"0.0000000000000","TLE_LINE1":"1 53287U 22086AX  22356.67247227 -.00002030  00000-0 -10951-3 0  9994","GP_ID":"221237966","DECAY_DATE":null,"MEAN_ELEMENT_THEORY":"SGP4","MEAN_MOTION":"15.08832643","INCLINATION":"53.2193","EPOCH":"2022-12-22T16:08:21.604128","CLASSIFICATION_TYPE":"U","OBJECT_NAME":"STARLINK-4107","TIME_SYSTEM":"UTC","MEAN_ANOMALY":"321.1232","OBJECT_ID":"2022-086AX","REF_FRAME":"TEME","ELEMENT_SET_NO":"999","BSTAR":"-0.00010951000000","OBJECT_TYPE":"PAYLOAD","SITE":"AFETR","TLE_LINE2":"2 53287  53.2193  49.9866 0002090  38.9911 321.1232 15.08832643 24105","PERIOD":"95.438"},{"PERIOD":"95.437","TLE_LINE2":"2 53288  53.2192  50.8270 0001883  41.4520 318.6614 15.08847843 24078","OBJECT_TYPE":"PAYLOAD","SITE":"AFETR","ELEMENT_SET_NO":"999","REF_FRAME":"TEME","OBJECT_ID":"2022-086AY","BSTAR":"-0.00009502600000","EPOCH":"2022-12-22T11:38:05.919936","MEAN_ANOMALY":"318.6614","CLASSIFICATION_TYPE":"U","TIME_SYSTEM":"UTC","OBJECT_NAME":"STARLINK-4162","MEAN_MOTION_DDOT":"0.0000000000000","MEAN_ELEMENT_THEORY":"SGP4","GP_ID":"221238173","DECAY_DATE":null,"MEAN_MOTION":"15.08847843","INCLINATION":"53.2192","TLE_LINE1":"1 53288U 22086AY  22356.48479074 -.00001801  00000-0 -95026-4 0  9993","CENTER_NAME":"EARTH","PERIAPSIS":"538.419","RCS_SIZE":"LARGE","RA_OF_ASC_NODE":"50.8270","EPHEMERIS_TYPE":"0","FILE":"3719655","SEMIMAJOR_AXIS":"6917.856","NORAD_CAT_ID":"53288","MEAN_MOTION_DOT":"-0.00001801","LAUNCH_DATE":"2022-07-24","REV_AT_EPOCH":"2407","APOAPSIS":"541.024","ARG_OF_PERICENTER":"41.4520","ECCENTRICITY":"0.00018830","COUNTRY_CODE":"US"},{"EPOCH":"2022-12-22T12:19:53.472576","OBJECT_NAME":"STARLINK-4176","CLASSIFICATION_TYPE":"U","TIME_SYSTEM":"UTC","MEAN_ANOMALY":"324.9400","OBJECT_ID":"2022-086AZ","ELEMENT_SET_NO":"999","REF_FRAME":"TEME","BSTAR":"0.00010832000000","OBJECT_TYPE":"PAYLOAD","SITE":"AFETR","TLE_LINE2":"2 53289  53.2171  45.8174 0002181  35.1736 324.9400 15.08842477 23984","PERIOD":"95.437","APOAPSIS":"541.247","ARG_OF_PERICENTER":"35.1736","COUNTRY_CODE":"US","ECCENTRICITY":"0.00021810","LAUNCH_DATE":"2022-07-24","REV_AT_EPOCH":"2398","FILE":"3719573","SEMIMAJOR_AXIS":"6917.873","MEAN_MOTION_DOT":"0.00001436","NORAD_CAT_ID":"53289","RA_OF_ASC_NODE":"45.8174","CENTER_NAME":"EARTH","PERIAPSIS":"538.229","RCS_SIZE":"LARGE","EPHEMERIS_TYPE":"0","MEAN_MOTION_DDOT":"0.0000000000000","TLE_LINE1":"1 53289U 22086AZ  22356.51381334  .00001436  00000-0  10832-3 0  9992","GP_ID":"221211141","DECAY_DATE":null,"MEAN_MOTION":"15.08842477","MEAN_ELEMENT_THEORY":"SGP4","INCLINATION":"53.2171"},{"PERIOD":"95.438","TLE_LINE2":"2 53290  53.2197  49.9716 0001981  40.7730 319.3410 15.08838205 24102","SITE":"AFETR","OBJECT_TYPE":"PAYLOAD","BSTAR":"-0.00002935600000","ELEMENT_SET_NO":"999","REF_FRAME":"TEME","OBJECT_ID":"2022-086BA","MEAN_ANOMALY":"319.3410","OBJECT_NAME":"STARLINK-4149","CLASSIFICATION_TYPE":"U","TIME_SYSTEM":"UTC","EPOCH":"2022-12-22T16:13:39.158688","MEAN_ELEMENT_THEORY":"SGP4","GP_ID":"221239416","DECAY_DATE":null,"MEAN_MOTION":"15.08838205","INCLINATION":"53.2197","TLE_LINE1":"1 53290U 22086BA  22356.67614767 -.00000755  00000-0 -29356-4 0  9997","MEAN_MOTION_DDOT":"0.0000000000000","EPHEMERIS_TYPE":"0","PERIAPSIS":"538.380","CENTER_NAME":"EARTH","RCS_SIZE":"LARGE","RA_OF_ASC_NODE":"49.9716","FILE":"3719655","SEMIMAJOR_AXIS":"6917.886","NORAD_CAT_ID":"53290","MEAN_MOTION_DOT":"-0.00000755","LAUNCH_DATE":"2022-07-24","REV_AT_EPOCH":"2410","ECCENTRICITY":"0.00019810","COUNTRY_CODE":"US","APOAPSIS":"541.121","ARG_OF_PERICENTER":"40.7730"},{"ECCENTRICITY":"0.00023070","COUNTRY_CODE":"US","ARG_OF_PERICENTER":"36.3712","APOAPSIS":"541.321","MEAN_MOTION_DOT":"0.00002146","NORAD_CAT_ID":"53291","SEMIMAJOR_AXIS":"6917.860","FILE":"3719655","REV_AT_EPOCH":"2415","LAUNCH_DATE":"2022-07-24","EPHEMERIS_TYPE":"0","RCS_SIZE":"LARGE","CENTER_NAME":"EARTH","PERIAPSIS":"538.129","RA_OF_ASC_NODE":"45.3173","INCLINATION":"53.2178","GP_ID":"221238380","MEAN_ELEMENT_THEORY":"SGP4","DECAY_DATE":null,"MEAN_MOTION":"15.08846792","TLE_LINE1":"1 53291U 22086BB  22356.54688849  .00002146  00000-0  15288-3 0  9998","MEAN_MOTION_DDOT":"0.0000000000000","MEAN_ANOMALY":"323.7437","TIME_SYSTEM":"UTC","CLASSIFICATION_TYPE":"U","OBJECT_NAME":"STARLINK-4166","EPOCH":"2022-12-22T13:07:31.165536","BSTAR":"0.00015288000000","ELEMENT_SET_NO":"999","REF_FRAME":"TEME","OBJECT_ID":"2022-086BB","SITE":"AFETR","OBJECT_TYPE":"PAYLOAD","PERIOD":"95.437","TLE_LINE2":"2 53291  53.2178  45.3173 0002307  36.3712 323.7437 15.08846792 24156"},{"PERIOD":"95.437","TLE_LINE2":"2 53292  53.2199  50.5983 0002282  42.2697 317.8471 15.08842625 24082","OBJECT_TYPE":"PAYLOAD","SITE":"AFETR","REF_FRAME":"TEME","ELEMENT_SET_NO":"999","OBJECT_ID":"2022-086BC","BSTAR":"0.00008176300000","EPOCH":"2022-12-22T12:53:40.439040","MEAN_ANOMALY":"317.8471","OBJECT_NAME":"STARLINK-4159","CLASSIFICATION_TYPE":"U","TIME_SYSTEM":"UTC","MEAN_MOTION_DDOT":"0.0000000000000","MEAN_ELEMENT_THEORY":"SGP4","GP_ID":"221201838","DECAY_DATE":null,"MEAN_MOTION":"15.08842625","INCLINATION":"53.2199","TLE_LINE1":"1 53292U 22086BC  22356.53727360  .00001013  00000-0  81763-4 0  9994","CENTER_NAME":"EARTH","PERIAPSIS":"538.159","RCS_SIZE":"LARGE","RA_OF_ASC_NODE":"50.5983","EPHEMERIS_TYPE":"0","SEMIMAJOR_AXIS":"6917.872","FILE":"3719197","NORAD_CAT_ID":"53292","MEAN_MOTION_DOT":"0.00001013","LAUNCH_DATE":"2022-07-24","REV_AT_EPOCH":"2408","APOAPSIS":"541.316","ARG_OF_PERICENTER":"42.2697","ECCENTRICITY":"0.00022820","COUNTRY_CODE":"US"},{"PERIOD":"95.438","TLE_LINE2":"2 53293  53.2178  40.7335 0001876  44.3641 315.7501 15.08839124 24218","SITE":"AFETR","OBJECT_TYPE":"PAYLOAD","BSTAR":"-0.00007284700000","REF_FRAME":"TEME","ELEMENT_SET_NO":"999","OBJECT_ID":"2022-086BD","MEAN_ANOMALY":"315.7501","TIME_SYSTEM":"UTC","CLASSIFICATION_TYPE":"U","OBJECT_NAME":"STARLINK-4148","EPOCH":"2022-12-22T12:12:35.301024","INCLINATION":"53.2178","DECAY_DATE":null,"GP_ID":"221202044","MEAN_MOTION":"15.08839124","MEAN_ELEMENT_THEORY":"SGP4","TLE_LINE1":"1 53293U 22086BD  22356.50874191 -.00001447  00000-0 -72847-4 0  9993","MEAN_MOTION_DDOT":"0.0000000000000","EPHEMERIS_TYPE":"0","RCS_SIZE":"LARGE","PERIAPSIS":"538.450","CENTER_NAME":"EARTH","RA_OF_ASC_NODE":"40.7335","MEAN_MOTION_DOT":"-0.00001447","NORAD_CAT_ID":"53293","SEMIMAJOR_AXIS":"6917.883","FILE":"3719197","REV_AT_EPOCH":"2421","LAUNCH_DATE":"2022-07-24","ECCENTRICITY":"0.00018760","COUNTRY_CODE":"US","ARG_OF_PERICENTER":"44.3641","APOAPSIS":"541.046"},{"FILE":"3719655","SEMIMAJOR_AXIS":"6917.923","NORAD_CAT_ID":"53294","MEAN_MOTION_DOT":"0.00000104","LAUNCH_DATE":"2022-07-24","REV_AT_EPOCH":"2427","APOAPSIS":"541.165","ARG_OF_PERICENTER":"43.2903","ECCENTRICITY":"0.00019900","COUNTRY_CODE":"US","MEAN_MOTION_DDOT":"0.0000000000000","DECAY_DATE":null,"GP_ID":"221239003","MEAN_ELEMENT_THEORY":"SGP4","MEAN_MOTION":"15.08825990","INCLINATION":"53.2205","TLE_LINE1":"1 53294U 22086BE  22356.60810742  .00000104  00000-0  24642-4 0  9994","CENTER_NAME":"EARTH","PERIAPSIS":"538.412","RCS_SIZE":"LARGE","RA_OF_ASC_NODE":"40.2772","EPHEMERIS_TYPE":"0","ELEMENT_SET_NO":"999","REF_FRAME":"TEME","OBJECT_ID":"2022-086BE","BSTAR":"0.00002464200000","EPOCH":"2022-12-22T14:35:40.481088","MEAN_ANOMALY":"316.8245","TIME_SYSTEM":"UTC","CLASSIFICATION_TYPE":"U","OBJECT_NAME":"STARLINK-4146","PERIOD":"95.438","TLE_LINE2":"2 53294  53.2205  40.2772 0001990  43.2903 316.8245 15.08825990 24275","OBJECT_TYPE":"PAYLOAD","SITE":"AFETR"}];
